[{"OBJECT_NAME":"DMSP 5D-3 F16 (USA 172)","OBJECT_ID":"2003-048A","EPOCH":"2026-03-03T20:23:31.277184","MEAN_MOTION":14.14459362,"ECCENTRICITY":0.0008206,"INCLINATION":98.9997,"RA_OF_ASC_NODE":85.9327,"ARG_OF_PERICENTER":87.1561,"MEAN_ANOMALY":36.8297,"EPHEMERIS_TYPE":0,"CLASSIFICATION_TYPE":"U","NORAD_CAT_ID":28054,"ELEMENT_SET_NO":999,"REV_AT_EPOCH":15459,"BSTAR":0.00011925,"MEAN_MOTION_DOT":1.83e-6,"MEAN_MOTION_DDOT":0},{"OBJECT_NAME":"METEOSAT-9 (MSG-2)","OBJECT_ID":"2005-049B","EPOCH":"2026-03-03T14:17:37.025952","MEAN_MOTION":1.00276803,"ECCENTRICITY":0.0001832,"INCLINATION":9.1231,"RA_OF_ASC_NODE":55.1899,"ARG_OF_PERICENTER":221.014,"MEAN_ANOMALY":145.2732,"EPHEMERIS_TYPE":0,"CLASSIFICATION_TYPE":"U","NORAD_CAT_ID":28912,"ELEMENT_SET_NO":999,"REV_AT_EPOCH":594,"BSTAR":0,"MEAN_MOTION_DOT":1.14e-6,"MEAN_MOTION_DDOT":0},{"OBJECT_NAME":"DMSP 5D-3 F17 (USA 191)","OBJECT_ID":"2006-050A","EPOCH":"2026-03-03T17:42:54.821664","MEAN_MOTION":14.14960828,"ECCENTRICITY":0.0010096,"INCLINATION":98.7412,"RA_OF_ASC_NODE":71.4543,"ARG_OF_PERICENTER":3.9975,"MEAN_ANOMALY":356.1278,"EPHEMERIS_TYPE":0,"CLASSIFICATION_TYPE":"U","NORAD_CAT_ID":29522,"ELEMENT_SET_NO":999,"REV_AT_EPOCH":99750,"BSTAR":0.00014063,"MEAN_MOTION_DOT":2.29e-6,"MEAN_MOTION_DDOT":0},{"OBJECT_NAME":"FENGYUN 3A","OBJECT_ID":"2008-026A","EPOCH":"2026-03-03T17:51:23.485248","MEAN_MOTION":14.19544195,"ECCENTRICITY":0.0009819,"INCLINATION":98.6791,"RA_OF_ASC_NODE":5.6055,"ARG_OF_PERICENTER":73.5861,"MEAN_ANOMALY":286.6394,"EPHEMERIS_TYPE":0,"CLASSIFICATION_TYPE":"U","NORAD_CAT_ID":32958,"ELEMENT_SET_NO":999,"REV_AT_EPOCH":92044,"BSTAR":8.8566e-5,"MEAN_MOTION_DOT":1.44e-6,"MEAN_MOTION_DDOT":0},{"OBJECT_NAME":"GOES 14","OBJECT_ID":"2009-033A","EPOCH":"2026-03-03T16:44:52.913760","MEAN_MOTION":1.00123964,"ECCENTRICITY":0.0002209,"INCLINATION":1.4171,"RA_OF_ASC_NODE":84.4315,"ARG_OF_PERICENTER":297.0894,"MEAN_ANOMALY":233.3639,"EPHEMERIS_TYPE":0,"CLASSIFICATION_TYPE":"U","NORAD_CAT_ID":35491,"ELEMENT_SET_NO":999,"REV_AT_EPOCH":553,"BSTAR":0,"MEAN_MOTION_DOT":1.15e-6,"MEAN_MOTION_DDOT":0},{"OBJECT_NAME":"DMSP 5D-3 F18 (USA 210)","OBJECT_ID":"2009-057A","EPOCH":"2026-03-03T18:31:37.459776","MEAN_MOTION":14.14831399,"ECCENTRICITY":0.0010794,"INCLINATION":98.8954,"RA_OF_ASC_NODE":43.8214,"ARG_OF_PERICENTER":185.1934,"MEAN_ANOMALY":174.9129,"EPHEMERIS_TYPE":0,"CLASSIFICATION_TYPE":"U","NORAD_CAT_ID":35951,"ELEMENT_SET_NO":999,"REV_AT_EPOCH":84468,"BSTAR":0.0001943,"MEAN_MOTION_DOT":3.3e-6,"MEAN_MOTION_DDOT":0},{"OBJECT_NAME":"EWS-G2 (GOES 15)","OBJECT_ID":"2010-008A","EPOCH":"2026-03-03T18:23:43.469376","MEAN_MOTION":1.00269377,"ECCENTRICITY":0.0001695,"INCLINATION":1.0075,"RA_OF_ASC_NODE":85.161,"ARG_OF_PERICENTER":23.0222,"MEAN_ANOMALY":32.7596,"EPHEMERIS_TYPE":0,"CLASSIFICATION_TYPE":"U","NORAD_CAT_ID":36411,"ELEMENT_SET_NO":999,"REV_AT_EPOCH":5858,"BSTAR":0,"MEAN_MOTION_DOT":8.0e-8,"MEAN_MOTION_DDOT":0},{"OBJECT_NAME":"COMS 1","OBJECT_ID":"2010-032A","EPOCH":"2026-03-03T18:32:26.693952","MEAN_MOTION":1.002717,"ECCENTRICITY":0.0001127,"INCLINATION":4.5342,"RA_OF_ASC_NODE":76.8785,"ARG_OF_PERICENTER":279.164,"MEAN_ANOMALY":211.7675,"EPHEMERIS_TYPE":0,"CLASSIFICATION_TYPE":"U","NORAD_CAT_ID":36744,"ELEMENT_SET_NO":999,"REV_AT_EPOCH":5003,"BSTAR":0,"MEAN_MOTION_DOT":-3.56e-6,"MEAN_MOTION_DDOT":0},{"OBJECT_NAME":"FENGYUN 3B","OBJECT_ID":"2010-059A","EPOCH":"2026-03-03T20:54:05.157792","MEAN_MOTION":14.14814297,"ECCENTRICITY":0.0022977,"INCLINATION":98.978,"RA_OF_ASC_NODE":108.3718,"ARG_OF_PERICENTER":123.8496,"MEAN_ANOMALY":345.7701,"EPHEMERIS_TYPE":0,"CLASSIFICATION_TYPE":"U","NORAD_CAT_ID":37214,"ELEMENT_SET_NO":999,"REV_AT_EPOCH":79253,"BSTAR":-7.6488e-5,"MEAN_MOTION_DOT":-1.93e-6,"MEAN_MOTION_DDOT":0},{"OBJECT_NAME":"SUOMI NPP","OBJECT_ID":"2011-061A","EPOCH":"2026-03-03T19:44:24.852768","MEAN_MOTION":14.19541551,"ECCENTRICITY":4.3e-5,"INCLINATION":98.7864,"RA_OF_ASC_NODE":4.472,"ARG_OF_PERICENTER":287.6961,"MEAN_ANOMALY":72.4168,"EPHEMERIS_TYPE":0,"CLASSIFICATION_TYPE":"U","NORAD_CAT_ID":37849,"ELEMENT_SET_NO":999,"REV_AT_EPOCH":74349,"BSTAR":7.1267e-5,"MEAN_MOTION_DOT":1.06e-6,"MEAN_MOTION_DDOT":0},{"OBJECT_NAME":"METEOSAT-10 (MSG-3)","OBJECT_ID":"2012-035B","EPOCH":"2026-03-03T19:12:38.752128","MEAN_MOTION":1.00277243,"ECCENTRICITY":0.0002501,"INCLINATION":4.4223,"RA_OF_ASC_NODE":61.466,"ARG_OF_PERICENTER":294.0063,"MEAN_ANOMALY":94.5172,"EPHEMERIS_TYPE":0,"CLASSIFICATION_TYPE":"U","NORAD_CAT_ID":38552,"ELEMENT_SET_NO":999,"REV_AT_EPOCH":4980,"BSTAR":0,"MEAN_MOTION_DOT":-1.5e-7,"MEAN_MOTION_DDOT":0},{"OBJECT_NAME":"METOP-B","OBJECT_ID":"2012-049A","EPOCH":"2026-03-03T17:50:26.892384","MEAN_MOTION":14.21442356,"ECCENTRICITY":0.000122,"INCLINATION":98.6654,"RA_OF_ASC_NODE":116.2789,"ARG_OF_PERICENTER":298.9685,"MEAN_ANOMALY":61.137,"EPHEMERIS_TYPE":0,"CLASSIFICATION_TYPE":"U","NORAD_CAT_ID":38771,"ELEMENT_SET_NO":999,"REV_AT_EPOCH":69828,"BSTAR":8.6609e-5,"MEAN_MOTION_DOT":1.46e-6,"MEAN_MOTION_DDOT":0},{"OBJECT_NAME":"INSAT-3D","OBJECT_ID":"2013-038B","EPOCH":"2026-03-03T18:32:26.668032","MEAN_MOTION":1.00273682,"ECCENTRICITY":0.0001784,"INCLINATION":1.6539,"RA_OF_ASC_NODE":83.9225,"ARG_OF_PERICENTER":240.4092,"MEAN_ANOMALY":244.7869,"EPHEMERIS_TYPE":0,"CLASSIFICATION_TYPE":"U","NORAD_CAT_ID":39216,"ELEMENT_SET_NO":999,"REV_AT_EPOCH":4602,"BSTAR":0,"MEAN_MOTION_DOT":-3.52e-6,"MEAN_MOTION_DDOT":0},{"OBJECT_NAME":"FENGYUN 3C","OBJECT_ID":"2013-052A","EPOCH":"2026-03-03T21:07:54.992640","MEAN_MOTION":14.15726752,"ECCENTRICITY":0.0014114,"INCLINATION":98.4882,"RA_OF_ASC_NODE":41.6489,"ARG_OF_PERICENTER":330.6978,"MEAN_ANOMALY":29.3404,"EPHEMERIS_TYPE":0,"CLASSIFICATION_TYPE":"U","NORAD_CAT_ID":39260,"ELEMENT_SET_NO":999,"REV_AT_EPOCH":64366,"BSTAR":9.8873e-5,"MEAN_MOTION_DOT":1.53e-6,"MEAN_MOTION_DDOT":0},{"OBJECT_NAME":"METEOR-M 2","OBJECT_ID":"2014-037A","EPOCH":"2026-03-03T21:52:11.915328","MEAN_MOTION":14.21426434,"ECCENTRICITY":0.0005696,"INCLINATION":98.5011,"RA_OF_ASC_NODE":42.4353,"ARG_OF_PERICENTER":354.7045,"MEAN_ANOMALY":5.4071,"EPHEMERIS_TYPE":0,"CLASSIFICATION_TYPE":"U","NORAD_CAT_ID":40069,"ELEMENT_SET_NO":999,"REV_AT_EPOCH":60436,"BSTAR":0.00015609,"MEAN_MOTION_DOT":2.99e-6,"MEAN_MOTION_DDOT":0},{"OBJECT_NAME":"HIMAWARI-8","OBJECT_ID":"2014-060A","EPOCH":"2026-03-03T18:09:59.756832","MEAN_MOTION":1.0027204,"ECCENTRICITY":7.92e-5,"INCLINATION":0.0349,"RA_OF_ASC_NODE":253.5628,"ARG_OF_PERICENTER":70.7847,"MEAN_ANOMALY":250.3122,"EPHEMERIS_TYPE":0,"CLASSIFICATION_TYPE":"U","NORAD_CAT_ID":40267,"ELEMENT_SET_NO":999,"REV_AT_EPOCH":4170,"BSTAR":0,"MEAN_MOTION_DOT":-2.9e-6,"MEAN_MOTION_DDOT":0},{"OBJECT_NAME":"FENGYUN 2G","OBJECT_ID":"2014-090A","EPOCH":"2026-03-03T14:31:09.655104","MEAN_MOTION":1.00274754,"ECCENTRICITY":0.0001966,"INCLINATION":5.3719,"RA_OF_ASC_NODE":74.0954,"ARG_OF_PERICENTER":153.5378,"MEAN_ANOMALY":251.1881,"EPHEMERIS_TYPE":0,"CLASSIFICATION_TYPE":"U","NORAD_CAT_ID":40367,"ELEMENT_SET_NO":999,"REV_AT_EPOCH":4094,"BSTAR":0,"MEAN_MOTION_DOT":-3.14e-6,"MEAN_MOTION_DDOT":0}]
